SKYSAT-A                
1 39418U 13066C   26197.09161266  .00001469  00000+0  86164-4 0  9995
2 39418  97.3803 245.5676 0020616 210.1814 149.8231 15.13117895692853
SKYSAT-B                
1 40072U 14037D   26196.83755785  .00000600  00000+0  71934-4 0  9993
2 40072  98.3854 157.4397 0005626 170.7304 189.4016 14.88092801650224
SKYSAT-C1               
1 41601U 16040C   26197.06622876  .00004970  00000+0  14048-3 0  9994
2 41601  96.9548 227.2267 0000242 270.9948  89.1270 15.36756692562303
SKYSAT-C4               
1 41771U 16058B   26197.01406851  .00010111  00000+0  18545-3 0  9999
2 41771  96.9159 217.5942 0003473 115.8842 244.2768 15.49453903549933
SKYSAT-C5               
1 41772U 16058C   26197.05944819  .00003999  00000+0  12489-3 0  9992
2 41772  97.0452 236.4040 0002639 158.1858 201.9499 15.33726186548176
SKYSAT-C2               
1 41773U 16058D   26197.32412445  .00006554  00000+0  15213-3 0  9996
2 41773  97.0156 218.3332 0001263 348.1707  11.9512 15.42695154549544
SKYSAT-C3               
1 41774U 16058E   26197.07149359  .00014988  00000+0  23540-3 0  9992
2 41774  96.8989 226.8279 0002558 131.8662 228.2811 15.53733168550597
SKYSAT-C11              
1 42987U 17068A   26196.94765456  .00018575  00000+0  23691-3 0  9991
2 42987  97.4381 347.0668 0001161 158.9178 201.2126 15.59351130487721
SKYSAT-C10              
1 42988U 17068B   26196.91234369  .00006009  00000+0  17869-3 0  9992
2 42988  97.4542 334.0538 0001465 110.9376 249.2024 15.35125075486761
SKYSAT-C9               
1 42989U 17068C   26196.92334097  .00007471  00000+0  17585-3 0  9992
2 42989  97.4461 335.2786 0008579  42.5748 317.6163 15.42224961487189
SKYSAT-C8               
1 42990U 17068D   26196.90461323  .00005815  00000+0  16040-3 0  9990
2 42990  97.4558 333.9566 0001213 103.3850 256.7530 15.37499510486725
SKYSAT-C7               
1 42991U 17068E   26196.89911914  .00005755  00000+0  15897-3 0  9997
2 42991  97.4569 334.9426 0005668  18.9667 341.1787 15.37449994486789
SKYSAT-C6               
1 42992U 17068F   26196.91048353  .00005061  00000+0  15543-3 0  9997
2 42992  97.4607 334.8045 0005082  87.6386 272.5438 15.34176907486722
SKYSAT-C12              
1 43797U 18099AR  26197.15788228  .00010102  00000+0  18297-3 0  9996
2 43797  96.9251 219.2457 0005286  68.2263 291.9552 15.49806580426340
